{"type": "FeatureCollection", "features": [ {"type": "Feature", "properties": {"norad_id": 41785, "name": "ALSAT 1B", "group": "resource", "lat": 10.821648089903084, "lon": -174.74052388234804, "alt_km": 654.7531322041204, "timestamp": "2025-12-18T04:58:34.238075+00:00", "meta": {"OBJECT_NAME": "ALSAT 1B", "OBJECT_ID": "2016-059C", "EPOCH": "2025-12-17T23:19:05.496096", "MEAN_MOTION": 14.72081213, "ECCENTRICITY": 0.001077, "INCLINATION": 97.7813, "RA_OF_ASC_NODE": 3.5361, "ARG_OF_PERICENTER": 88.5981, "MEAN_ANOMALY": 271.646, "EPHEMERIS_TYPE": 0, "CLASSIFICATION_TYPE": "U", "NORAD_CAT_ID": 41785, "ELEMENT_SET_NO": 999, "REV_AT_EPOCH": 49391, "BSTAR": 7.0744609e-05, "MEAN_MOTION_DOT": 3.98e-06, "MEAN_MOTION_DDOT": 0}, "tle": {"line1": "1 41785U 16059C   25351.97159139  .00000398  00000+0  70745-4 0  9992", "line2": "2 41785  97.7813   3.5361 0010770  88.5981 271.6460 14.72081213493915"}}, "geometry": {"type": "Point", "coordinates": [-174.74052388234804, 10.821648089903084]}}, {"type": "Feature", "properties": {"norad_id": 41787, "name": "PATHFINDER 1", "group": "resource", "lat": 25.267314091699358, "lon": 178.44339354201213, "alt_km": 668.7188275433755, "timestamp": "2025-12-18T04:58:34.238085+00:00", "meta": {"OBJECT_NAME": "PATHFINDER 1", "OBJECT_ID": "2016-059E", "EPOCH": "2025-12-17T21:43:53.212800", "MEAN_MOTION": 14.67330244, "ECCENTRICITY": 0.00299287, "INCLINATION": 97.8136, "RA_OF_ASC_NODE": 354.4394, "ARG_OF_PERICENTER": 65.5153, "MEAN_ANOMALY": 294.9169, "EPHEMERIS_TYPE": 0, "CLASSIFICATION_TYPE": "U", "NORAD_CAT_ID": 41787, "ELEMENT_SET_NO": 999, "REV_AT_EPOCH": 49312, "BSTAR": 0.00012459494, "MEAN_MOTION_DOT": 6.61e-06, "MEAN_MOTION_DDOT": 0}, "tle": {"line1": "1 41787U 16059E   25351.90547700  .00000661  00000+0  12459-3 0  9992", "line2": "2 41787  97.8136 354.4394 0029928  65.5153 294.9169 14.67330244493123"}}, "geometry": {"type": "Point", "coordinates": [178.44339354201213, 25.267314091699358]}}, {"type": "Feature", "properties": {"norad_id": 41790, "name": "SCATSAT 1", "group": "resource", "lat": 14.274939435034964, "lon": 46.85721395155394, "alt_km": 637.63022382072, "timestamp": "2025-12-18T04:58:34.238096+00:00", "meta": {"OBJECT_NAME": "SCATSAT 1", "OBJECT_ID": "2016-059H", "EPOCH": "2025-12-17T17:32:40.934112", "MEAN_MOTION": 14.78953066, "ECCENTRICITY": 0.00564081, "INCLINATION": 98.1459, "RA_OF_ASC_NODE": 48.4635, "ARG_OF_PERICENTER": 112.233, "MEAN_ANOMALY": 248.4878, "EPHEMERIS_TYPE": 0, "CLASSIFICATION_TYPE": "U", "NORAD_CAT_ID": 41790, "ELEMENT_SET_NO": 999, "REV_AT_EPOCH": 7476, "BSTAR": 0.0001711888, "MEAN_MOTION_DOT": 1.24e-05, "MEAN_MOTION_DDOT": 0}, "tle": {"line1": "1 41790U 16059H   25351.73102933  .00001240  00000+0  17119-3 0  9994", "line2": "2 41790  98.1459  48.4635 0056408 112.2330 248.4878 14.78953066 74768"}}, "geometry": {"type": "Point", "coordinates": [46.85721395155394, 14.274939435034964]}}, {"type": "Feature", "properties": {"norad_id": 41875, "name": "GOKTURK 1A", "group": "resource", "lat": 37.38749910347676, "lon": 70.78153115857731, "alt_km": 681.0995774116191, "timestamp": "2025-12-18T04:58:34.238106+00:00", "meta": {"OBJECT_NAME": "GOKTURK 1A", "OBJECT_ID": "2016-073A", "EPOCH": "2025-12-17T23:24:14.040864", "MEAN_MOTION": 14.62785862, "ECCENTRICITY": 0.00012342, "INCLINATION": 98.1432, "RA_OF_ASC_NODE": 244.2704, "ARG_OF_PERICENTER": 79.6067, "MEAN_ANOMALY": 280.5274, "EPHEMERIS_TYPE": 0, "CLASSIFICATION_TYPE": "U", "NORAD_CAT_ID": 41875, "ELEMENT_SET_NO": 999, "REV_AT_EPOCH": 48233, "BSTAR": 9.8467025e-05, "MEAN_MOTION_DOT": 4.55e-06, "MEAN_MOTION_DDOT": 0}, "tle": {"line1": "1 41875U 16073A   25351.97516251  .00000455  00000+0  98467-4 0  9995", "line2": "2 41875  98.1432 244.2704 0001234  79.6067 280.5274 14.62785862482339"}}, "geometry": {"type": "Point", "coordinates": [70.78153115857731, 37.38749910347676]}}, {"type": "Feature", "properties": {"norad_id": 41877, "name": "RESOURCESAT-2A", "group": "resource", "lat": 75.37778328793898, "lon": -81.66356788248817, "alt_km": 813.3220912785655, "timestamp": "2025-12-18T04:58:34.238117+00:00", "meta": {"OBJECT_NAME": "RESOURCESAT-2A", "OBJECT_ID": "2016-074A", "EPOCH": "2025-12-17T23:25:54.411744", "MEAN_MOTION": 14.21601173, "ECCENTRICITY": 0.00013044, "INCLINATION": 98.7756, "RA_OF_ASC_NODE": 61.802, "ARG_OF_PERICENTER": 229.2957, "MEAN_ANOMALY": 130.8107, "EPHEMERIS_TYPE": 0, "CLASSIFICATION_TYPE": "U", "NORAD_CAT_ID": 41877, "ELEMENT_SET_NO": 999, "REV_AT_EPOCH": 46855, "BSTAR": 5.2889613e-05, "MEAN_MOTION_DOT": 7.2e-07, "MEAN_MOTION_DDOT": 0}, "tle": {"line1": "1 41877U 16074A   25351.97632421  .00000072  00000+0  52890-4 0  9991", "line2": "2 41877  98.7756  61.8020 0001304 229.2957 130.8107 14.21601173468556"}}, "geometry": {"type": "Point", "coordinates": [-81.66356788248817, 75.37778328793898]}}, {"type": "Feature", "properties": {"norad_id": 41948, "name": "CARTOSAT-2D", "group": "resource", "lat": -47.19625184447414, "lon": -138.48807373105822, "alt_km": 514.2667548246764, "timestamp": "2025-12-18T04:58:34.238127+00:00", "meta": {"OBJECT_NAME": "CARTOSAT-2D", "OBJECT_ID": "2017-008A", "EPOCH": "2025-12-17T23:14:08.198880", "MEAN_MOTION": 15.19311008, "ECCENTRICITY": 0.00050745, "INCLINATION": 97.4389, "RA_OF_ASC_NODE": 49.3867, "ARG_OF_PERICENTER": 146.8087, "MEAN_ANOMALY": 213.3467, "EPHEMERIS_TYPE": 0, "CLASSIFICATION_TYPE": "U", "NORAD_CAT_ID": 41948, "ELEMENT_SET_NO": 999, "REV_AT_EPOCH": 49006, "BSTAR": 0.00022714421, "MEAN_MOTION_DOT": 4.729e-05, "MEAN_MOTION_DDOT": 0}, "tle": {"line1": "1 41948U 17008A   25351.96815045  .00004729  00000+0  22714-3 0  9996", "line2": "2 41948  97.4389  49.3867 0005074 146.8087 213.3467 15.19311008490069"}}, "geometry": {"type": "Point", "coordinates": [-138.48807373105822, -47.19625184447414]}}, {"type": "Feature", "properties": {"norad_id": 42063, "name": "SENTINEL-2B", "group": "resource", "lat": -69.60761053332703, "lon": -139.35933111517983, "alt_km": 797.0229293245693, "timestamp": "2025-12-18T04:58:34.238137+00:00", "meta": {"OBJECT_NAME": "SENTINEL-2B", "OBJECT_ID": "2017-013A", "EPOCH": "2025-12-17T22:46:11.566272", "MEAN_MOTION": 14.30818263, "ECCENTRICITY": 0.00011522, "INCLINATION": 98.5715, "RA_OF_ASC_NODE": 64.3219, "ARG_OF_PERICENTER": 92.9086, "MEAN_ANOMALY": 267.2229, "EPHEMERIS_TYPE": 0, "CLASSIFICATION_TYPE": "U", "NORAD_CAT_ID": 42063, "ELEMENT_SET_NO": 999, "REV_AT_EPOCH": 45872, "BSTAR": 8.1445788e-05, "MEAN_MOTION_DOT": 1.7e-06, "MEAN_MOTION_DDOT": 0}, "tle": {"line1": "1 42063U 17013A   25351.94874498  .00000170  00000+0  81446-4 0  9990", "line2": "2 42063  98.5715  64.3219 0001152  92.9086 267.2229 14.30818263458722"}}, "geometry": {"type": "Point", "coordinates": [-139.35933111517983, -69.60761053332703]}}, {"type": "Feature", "properties": {"norad_id": 42767, "name": "CARTOSAT-2E", "group": "resource", "lat": 42.27979451363701, "lon": -123.43842822650493, "alt_km": 504.3007466978479, "timestamp": "2025-12-18T04:58:34.238147+00:00", "meta": {"OBJECT_NAME": "CARTOSAT-2E", "OBJECT_ID": "2017-036C", "EPOCH": "2025-12-17T23:37:55.006752", "MEAN_MOTION": 15.19248395, "ECCENTRICITY": 0.00023136, "INCLINATION": 97.4552, "RA_OF_ASC_NODE": 49.5034, "ARG_OF_PERICENTER": 212.8894, "MEAN_ANOMALY": 147.2197, "EPHEMERIS_TYPE": 0, "CLASSIFICATION_TYPE": "U", "NORAD_CAT_ID": 42767, "ELEMENT_SET_NO": 999, "REV_AT_EPOCH": 47063, "BSTAR": 0.0001980688, "MEAN_MOTION_DOT": 4.106e-05, "MEAN_MOTION_DDOT": 0}, "tle": {"line1": "1 42767U 17036C   25351.98466443  .00004106  00000+0  19807-3 0  9991", "line2": "2 42767  97.4552  49.5034 0002313 212.8894 147.2197 15.19248395470636"}}, "geometry": {"type": "Point", "coordinates": [-123.43842822650493, 42.27979451363701]}}, {"type": "Feature", "properties": {"norad_id": 42920, "name": "FORMOSAT-5", "group": "resource", "lat": -69.75614044599614, "lon": 89.56856732907328, "alt_km": 723.4437405682911, "timestamp": "2025-12-18T04:58:34.238158+00:00", "meta": {"OBJECT_NAME": "FORMOSAT-5", "OBJECT_ID": "2017-049A", "EPOCH": "2025-12-17T19:22:22.650240", "MEAN_MOTION": 14.50763591, "ECCENTRICITY": 0.00098702, "INCLINATION": 98.2449, "RA_OF_ASC_NODE": 66.0252, "ARG_OF_PERICENTER": 284.4391, "MEAN_ANOMALY": 75.5709, "EPHEMERIS_TYPE": 0, "CLASSIFICATION_TYPE": "U", "NORAD_CAT_ID": 42920, "ELEMENT_SET_NO": 999, "REV_AT_EPOCH": 44037, "BSTAR": 4.625776e-05, "MEAN_MOTION_DOT": 1.38e-06, "MEAN_MOTION_DDOT": 0}, "tle": {"line1": "1 42920U 17049A   25351.80720660  .00000138  00000+0  46258-4 0  9993", "line2": "2 42920  98.2449  66.0252 0009870 284.4391  75.5709 14.50763591440373"}}, "geometry": {"type": "Point", "coordinates": [89.56856732907328, -69.75614044599614]}}, {"type": "Feature", "properties": {"norad_id": 42969, "name": "SENTINEL-5P", "group": "resource", "lat": 65.38949916968254, "lon": -88.97325420013831, "alt_km": 819.8935742339227, "timestamp": "2025-12-18T04:58:34.238169+00:00", "meta": {"OBJECT_NAME": "SENTINEL-5P", "OBJECT_ID": "2017-064A", "EPOCH": "2025-12-17T18:30:43.644672", "MEAN_MOTION": 14.19518769, "ECCENTRICITY": 0.00010066, "INCLINATION": 98.779, "RA_OF_ASC_NODE": 290.3109, "ARG_OF_PERICENTER": 89.6967, "MEAN_ANOMALY": 270.4324, "EPHEMERIS_TYPE": 0, "CLASSIFICATION_TYPE": "U", "NORAD_CAT_ID": 42969, "ELEMENT_SET_NO": 999, "REV_AT_EPOCH": 42382, "BSTAR": 4.2650522e-05, "MEAN_MOTION_DOT": 4.6e-07, "MEAN_MOTION_DDOT": 0}, "tle": {"line1": "1 42969U 17064A   25351.77133848  .00000046  00000+0  42651-4 0  9996", "line2": "2 42969  98.7790 290.3109 0001006  89.6967 270.4324 14.19518769423820"}}, "geometry": {"type": "Point", "coordinates": [-88.97325420013831, 65.38949916968254]}}]}